{
  "norad_id": 66942,
  "name": "STARLINK-36100",
  "history": [
    {
      "epoch": "2026-03-28T19:00:17.293248Z",
      "apogee_km": 475.74834639122946,
      "perigee_km": 474.6253607445851,
      "latitude_deg": 7.67312093185582e-06,
      "longitude_deg": 158.28151508005303,
      "height_km": 475.850474833107,
      "semi_major_axis_km": 6853.3238535679075,
      "eccentricity": 8.193e-05,
      "inclination_deg": 53.1571,
      "raan_deg": 269.5608,
      "arg_perigee_deg": 65.2751,
      "mean_anomaly_deg": 294.8335,
      "mean_motion_rev_day": 15.3020945
    }
  ]
}